[{"OBJECT_NAME":"XW-3 (CAS-9)","OBJECT_ID":"2021-131B","EPOCH":"2026-03-06T20:46:52.838112","MEAN_MOTION":14.41246369,"ECCENTRICITY":0.0004973,"INCLINATION":98.4965,"RA_OF_ASC_NODE":158.8375,"ARG_OF_PERICENTER":56.7649,"MEAN_ANOMALY":303.4016,"EPHEMERIS_TYPE":0,"CLASSIFICATION_TYPE":"U","NORAD_CAT_ID":50466,"ELEMENT_SET_NO":999,"REV_AT_EPOCH":22037,"BSTAR":0.00021565,"MEAN_MOTION_DOT":6.53e-6,"MEAN_MOTION_DDOT":0},{"OBJECT_NAME":"GREENCUBE (IO-117)","OBJECT_ID":"2022-080E","EPOCH":"2026-03-06T03:40:17.821056","MEAN_MOTION":6.42583089,"ECCENTRICITY":0.00090284,"INCLINATION":70.1629,"RA_OF_ASC_NODE":334.0832,"ARG_OF_PERICENTER":311.936,"MEAN_ANOMALY":48.053,"EPHEMERIS_TYPE":0,"CLASSIFICATION_TYPE":"U","NORAD_CAT_ID":53109,"ELEMENT_SET_NO":999,"REV_AT_EPOCH":8544,"BSTAR":0,"MEAN_MOTION_DOT":-3.0e-8,"MEAN_MOTION_DDOT":0},{"OBJECT_NAME":"UMKA 1 (RS40S)","OBJECT_ID":"2023-091G","EPOCH":"2026-03-06T19:21:16.841952","MEAN_MOTION":15.19543364,"ECCENTRICITY":0.0014639,"INCLINATION":97.518,"RA_OF_ASC_NODE":124.9242,"ARG_OF_PERICENTER":114.9757,"MEAN_ANOMALY":245.3,"EPHEMERIS_TYPE":0,"CLASSIFICATION_TYPE":"U","NORAD_CAT_ID":57172,"ELEMENT_SET_NO":999,"REV_AT_EPOCH":14845,"BSTAR":0.00039273,"MEAN_MOTION_DOT":8.304e-5,"MEAN_MOTION_DDOT":0},{"OBJECT_NAME":"CUBESX-HSE 3 (RS42S)","OBJECT_ID":"2023-091N","EPOCH":"2026-03-06T21:06:52.459776","MEAN_MOTION":15.28495528,"ECCENTRICITY":0.0012756,"INCLINATION":97.5209,"RA_OF_ASC_NODE":130.3217,"ARG_OF_PERICENTER":95.9622,"MEAN_ANOMALY":264.3072,"EPHEMERIS_TYPE":0,"CLASSIFICATION_TYPE":"U","NORAD_CAT_ID":57178,"ELEMENT_SET_NO":999,"REV_AT_EPOCH":14878,"BSTAR":0.00065088,"MEAN_MOTION_DOT":0.0001804,"MEAN_MOTION_DDOT":0},{"OBJECT_NAME":"MONITOR-3 (RS58S)","OBJECT_ID":"2023-091Q","EPOCH":"2026-03-06T19:50:45.456000","MEAN_MOTION":15.25647463,"ECCENTRICITY":0.0013755,"INCLINATION":97.5204,"RA_OF_ASC_NODE":128.6249,"ARG_OF_PERICENTER":100.8962,"MEAN_ANOMALY":259.3824,"EPHEMERIS_TYPE":0,"CLASSIFICATION_TYPE":"U","NORAD_CAT_ID":57180,"ELEMENT_SET_NO":999,"REV_AT_EPOCH":14867,"BSTAR":0.00055833,"MEAN_MOTION_DOT":0.00014182,"MEAN_MOTION_DDOT":0},{"OBJECT_NAME":"MONITOR-4 (RS57S)","OBJECT_ID":"2023-091S","EPOCH":"2026-03-06T21:04:00.679296","MEAN_MOTION":15.2573453,"ECCENTRICITY":0.0013715,"INCLINATION":97.5198,"RA_OF_ASC_NODE":128.6408,"ARG_OF_PERICENTER":101.1094,"MEAN_ANOMALY":259.1687,"EPHEMERIS_TYPE":0,"CLASSIFICATION_TYPE":"U","NORAD_CAT_ID":57182,"ELEMENT_SET_NO":999,"REV_AT_EPOCH":14868,"BSTAR":0.00058653,"MEAN_MOTION_DOT":0.00014942,"MEAN_MOTION_DDOT":0},{"OBJECT_NAME":"MONITOR-2 (RS39S)","OBJECT_ID":"2023-091U","EPOCH":"2026-03-06T20:07:24.946752","MEAN_MOTION":15.17871067,"ECCENTRICITY":0.0012984,"INCLINATION":97.5203,"RA_OF_ASC_NODE":124.7915,"ARG_OF_PERICENTER":107.6249,"MEAN_ANOMALY":252.6404,"EPHEMERIS_TYPE":0,"CLASSIFICATION_TYPE":"U","NORAD_CAT_ID":57184,"ELEMENT_SET_NO":999,"REV_AT_EPOCH":14842,"BSTAR":0.00038153,"MEAN_MOTION_DOT":7.679e-5,"MEAN_MOTION_DDOT":0},{"OBJECT_NAME":"SVYATOBOR 1 (RS60S)","OBJECT_ID":"2023-091X","EPOCH":"2026-03-06T21:04:40.127808","MEAN_MOTION":15.24734854,"ECCENTRICITY":0.0011246,"INCLINATION":97.5209,"RA_OF_ASC_NODE":129.2085,"ARG_OF_PERICENTER":93.7276,"MEAN_ANOMALY":266.5247,"EPHEMERIS_TYPE":0,"CLASSIFICATION_TYPE":"U","NORAD_CAT_ID":57187,"ELEMENT_SET_NO":999,"REV_AT_EPOCH":14871,"BSTAR":0.00050604,"MEAN_MOTION_DOT":0.00012486,"MEAN_MOTION_DDOT":0},{"OBJECT_NAME":"VIZARD-METEO (RS38S)","OBJECT_ID":"2023-091Z","EPOCH":"2026-03-06T21:22:33.472416","MEAN_MOTION":15.32620735,"ECCENTRICITY":0.0008886,"INCLINATION":97.5199,"RA_OF_ASC_NODE":133.5336,"ARG_OF_PERICENTER":80.9361,"MEAN_ANOMALY":279.2886,"EPHEMERIS_TYPE":0,"CLASSIFICATION_TYPE":"U","NORAD_CAT_ID":57189,"ELEMENT_SET_NO":999,"REV_AT_EPOCH":14900,"BSTAR":0.00069717,"MEAN_MOTION_DOT":0.00021945,"MEAN_MOTION_DDOT":0},{"OBJECT_NAME":"NANOZOND 1 (RS49S)","OBJECT_ID":"2023-091AA","EPOCH":"2026-03-04T18:50:11.914368","MEAN_MOTION":15.72447637,"ECCENTRICITY":4.56e-5,"INCLINATION":97.509,"RA_OF_ASC_NODE":143.6448,"ARG_OF_PERICENTER":27.7219,"MEAN_ANOMALY":332.4068,"EPHEMERIS_TYPE":0,"CLASSIFICATION_TYPE":"U","NORAD_CAT_ID":57190,"ELEMENT_SET_NO":999,"REV_AT_EPOCH":14950,"BSTAR":0.0017099321,"MEAN_MOTION_DOT":0.00233103,"MEAN_MOTION_DDOT":0},{"OBJECT_NAME":"POLYTECH-UNIVERSE 3 (RS46S)","OBJECT_ID":"2023-091AB","EPOCH":"2026-03-06T21:05:31.142688","MEAN_MOTION":15.18054466,"ECCENTRICITY":0.0017276,"INCLINATION":97.518,"RA_OF_ASC_NODE":124.3387,"ARG_OF_PERICENTER":123.0169,"MEAN_ANOMALY":237.2727,"EPHEMERIS_TYPE":0,"CLASSIFICATION_TYPE":"U","NORAD_CAT_ID":57191,"ELEMENT_SET_NO":999,"REV_AT_EPOCH":14842,"BSTAR":0.00035489,"MEAN_MOTION_DOT":7.187e-5,"MEAN_MOTION_DDOT":0},{"OBJECT_NAME":"UTMN 2 (RS27S)","OBJECT_ID":"2023-091AP","EPOCH":"2026-03-06T21:21:08.330400","MEAN_MOTION":15.29379115,"ECCENTRICITY":0.0009835,"INCLINATION":97.5201,"RA_OF_ASC_NODE":131.8394,"ARG_OF_PERICENTER":85.2404,"MEAN_ANOMALY":274.9959,"EPHEMERIS_TYPE":0,"CLASSIFICATION_TYPE":"U","NORAD_CAT_ID":57203,"ELEMENT_SET_NO":999,"REV_AT_EPOCH":14889,"BSTAR":0.00062266,"MEAN_MOTION_DOT":0.00017711,"MEAN_MOTION_DDOT":0},{"OBJECT_NAME":"KUZGTU 1 (RS47S)","OBJECT_ID":"2023-091AV","EPOCH":"2026-03-06T20:29:02.834592","MEAN_MOTION":15.27371097,"ECCENTRICITY":0.0012969,"INCLINATION":97.5185,"RA_OF_ASC_NODE":129.4187,"ARG_OF_PERICENTER":98.9041,"MEAN_ANOMALY":261.3666,"EPHEMERIS_TYPE":0,"CLASSIFICATION_TYPE":"U","NORAD_CAT_ID":57217,"ELEMENT_SET_NO":999,"REV_AT_EPOCH":14874,"BSTAR":0.00062734,"MEAN_MOTION_DOT":0.00016798,"MEAN_MOTION_DDOT":0},{"OBJECT_NAME":"SONATE-2","OBJECT_ID":"2024-043Q","EPOCH":"2026-03-06T19:42:18.738144","MEAN_MOTION":15.51079188,"ECCENTRICITY":0.0007751,"INCLINATION":97.539,"RA_OF_ASC_NODE":210.6117,"ARG_OF_PERICENTER":216.5055,"MEAN_ANOMALY":143.5669,"EPHEMERIS_TYPE":0,"CLASSIFICATION_TYPE":"U","NORAD_CAT_ID":59112,"ELEMENT_SET_NO":999,"REV_AT_EPOCH":11198,"BSTAR":0.00082036,"MEAN_MOTION_DOT":0.00047936,"MEAN_MOTION_DDOT":0},{"OBJECT_NAME":"MESAT1","OBJECT_ID":"2024-125G","EPOCH":"2026-03-06T08:24:47.446560","MEAN_MOTION":15.53231197,"ECCENTRICITY":0.00113528,"INCLINATION":97.2455,"RA_OF_ASC_NODE":281.1607,"ARG_OF_PERICENTER":235.5083,"MEAN_ANOMALY":124.5099,"EPHEMERIS_TYPE":0,"CLASSIFICATION_TYPE":"U","NORAD_CAT_ID":60209,"ELEMENT_SET_NO":999,"REV_AT_EPOCH":9355,"BSTAR":0.00071166848,"MEAN_MOTION_DOT":0.0004495,"MEAN_MOTION_DDOT":0},{"OBJECT_NAME":"OOV-CUBE (TUBSAT-30)","OBJECT_ID":"2024-128F","EPOCH":"2026-03-06T20:00:50.211072","MEAN_MOTION":15.02225111,"ECCENTRICITY":0.005471,"INCLINATION":61.9944,"RA_OF_ASC_NODE":222.3349,"ARG_OF_PERICENTER":111.7529,"MEAN_ANOMALY":248.9397,"EPHEMERIS_TYPE":0,"CLASSIFICATION_TYPE":"U","NORAD_CAT_ID":60240,"ELEMENT_SET_NO":999,"REV_AT_EPOCH":9073,"BSTAR":0.00038847,"MEAN_MOTION_DOT":5.102e-5,"MEAN_MOTION_DDOT":0}]
